[{"OBJECT_NAME":"TIANHUI 1-04","OBJECT_ID":"2021-067A","EPOCH":"2026-03-09T22:48:57.841344","MEAN_MOTION":15.23549064,"ECCENTRICITY":8.015e-5,"INCLINATION":97.2864,"RA_OF_ASC_NODE":139.9989,"ARG_OF_PERICENTER":74.6542,"MEAN_ANOMALY":285.4784,"EPHEMERIS_TYPE":0,"CLASSIFICATION_TYPE":"U","NORAD_CAT_ID":49049,"ELEMENT_SET_NO":999,"REV_AT_EPOCH":25648,"BSTAR":1.6880446e-5,"MEAN_MOTION_DOT":3.36e-6,"MEAN_MOTION_DDOT":0},{"OBJECT_NAME":"SPACEMOBILE-004","OBJECT_ID":"2024-163E","EPOCH":"2026-03-09T22:36:02.951712","MEAN_MOTION":15.21094037,"ECCENTRICITY":0.00066784,"INCLINATION":52.9754,"RA_OF_ASC_NODE":45.4081,"ARG_OF_PERICENTER":208.0587,"MEAN_ANOMALY":152.0048,"EPHEMERIS_TYPE":0,"CLASSIFICATION_TYPE":"U","NORAD_CAT_ID":61049,"ELEMENT_SET_NO":999,"REV_AT_EPOCH":8266,"BSTAR":0.0008716662,"MEAN_MOTION_DOT":0.00019363,"MEAN_MOTION_DDOT":0}]
